{
  "type": "FeatureCollection",
  "features": [
    {
      "type": "Feature",
      "properties": {
        "norad_id": 44873,
        "name": "CSG-1",
        "group": "resource",
        "lat": -31.367955720784988,
        "lon": 177.0073595229816,
        "alt_km": 629.0990687078256,
        "timestamp": "2025-12-16T21:38:56.827512+00:00",
        "meta_object_name": "CSG-1",
        "meta_object_id": "2019-092A",
        "meta_epoch": "2025-12-16T10:27:00.089280",
        "meta_mean_motion": 14.82145521,
        "meta_eccentricity": 0.0001487,
        "meta_inclination": 97.8809,
        "meta_ra_of_asc_node": 171.7039,
        "meta_arg_of_pericenter": 86.8831,
        "meta_mean_anomaly": 273.2552,
        "meta_ephemeris_type": 0,
        "meta_classification_type": "U",
        "meta_norad_cat_id": 44873,
        "meta_element_set_no": 999,
        "meta_rev_at_epoch": 32440,
        "meta_bstar": 9.6665e-05,
        "meta_mean_motion_dot": 7.17e-06,
        "meta_mean_motion_ddot": 0,
        "tle_line1": "1 44873U 19092A   25350.43541770  .00000717  00000+0  96665-4 0  9993",
        "tle_line2": "2 44873  97.8809 171.7039 0001487  86.8831 273.2552 14.82145521324403"
      },
      "geometry": {
        "type": "Point",
        "coordinates": [
          177.0073595229816,
          -31.367955720784988
        ]
      }
    },
    {
      "type": "Feature",
      "properties": {
        "norad_id": 46277,
        "name": "NEMO-HD",
        "group": "resource",
        "lat": -79.25148105283566,
        "lon": 91.85806683595474,
        "alt_km": 453.0352299155111,
        "timestamp": "2025-12-16T21:38:56.827522+00:00",
        "meta_object_name": "NEMO-HD",
        "meta_object_id": "2020-061F",
        "meta_epoch": "2025-12-16T07:58:24.183840",
        "meta_mean_motion": 15.40404762,
        "meta_eccentricity": 0.00016594,
        "meta_inclination": 97.2215,
        "meta_ra_of_asc_node": 49.3846,
        "meta_arg_of_pericenter": 53.8345,
        "meta_mean_anomaly": 306.3055,
        "meta_ephemeris_type": 0,
        "meta_classification_type": "U",
        "meta_norad_cat_id": 46277,
        "meta_element_set_no": 999,
        "meta_rev_at_epoch": 29379,
        "meta_bstar": 0.00021113936,
        "meta_mean_motion_dot": 8.455e-05,
        "meta_mean_motion_ddot": 0,
        "tle_line1": "1 46277U 20061F   25350.33222435  .00008455  00000+0  21114-3 0  9997",
        "tle_line2": "2 46277  97.2215  49.3846 0001659  53.8345 306.3055 15.40404762293792"
      },
      "geometry": {
        "type": "Point",
        "coordinates": [
          91.85806683595474,
          -79.25148105283566
        ]
      }
    },
    {
      "type": "Feature",
      "properties": {
        "norad_id": 46984,
        "name": "SENTINEL-6A",
        "group": "resource",
        "lat": -28.18528944320512,
        "lon": -12.552049621092884,
        "alt_km": 1339.372351066907,
        "timestamp": "2025-12-16T21:38:56.827532+00:00",
        "meta_object_name": "SENTINEL-6A",
        "meta_object_id": "2020-086A",
        "meta_epoch": "2025-12-16T03:41:09.449376",
        "meta_mean_motion": 12.80930741,
        "meta_eccentricity": 0.00077163,
        "meta_inclination": 66.039,
        "meta_ra_of_asc_node": 155.2173,
        "meta_arg_of_pericenter": 269.2946,
        "meta_mean_anomaly": 90.7185,
        "meta_ephemeris_type": 0,
        "meta_classification_type": "U",
        "meta_norad_cat_id": 46984,
        "meta_element_set_no": 999,
        "meta_rev_at_epoch": 23688,
        "meta_bstar": 9.7652473e-05,
        "meta_mean_motion_dot": -3.9e-07,
        "meta_mean_motion_ddot": 0,
        "tle_line1": "1 46984U 20086A   25350.15358159 -.00000039  00000+0  97652-4 0  9994",
        "tle_line2": "2 46984  66.0390 155.2173 0007716 269.2946  90.7185 12.80930741236882"
      },
      "geometry": {
        "type": "Point",
        "coordinates": [
          -12.552049621092884,
          -28.18528944320512
        ]
      }
    },
    {
      "type": "Feature",
      "properties": {
        "norad_id": 48079,
        "name": "GAOFEN-12 02",
        "group": "resource",
        "lat": -26.528137204318806,
        "lon": 160.87018845742128,
        "alt_km": 633.9670462740187,
        "timestamp": "2025-12-16T21:38:56.827542+00:00",
        "meta_object_name": "GAOFEN-12 02",
        "meta_object_id": "2021-026A",
        "meta_epoch": "2025-12-16T06:07:19.374240",
        "meta_mean_motion": 14.80679301,
        "meta_eccentricity": 0.00035941,
        "meta_inclination": 97.9852,
        "meta_ra_of_asc_node": 344.2445,
        "meta_arg_of_pericenter": 94.0705,
        "meta_mean_anomaly": 266.0918,
        "meta_ephemeris_type": 0,
        "meta_classification_type": "U",
        "meta_norad_cat_id": 48079,
        "meta_element_set_no": 999,
        "meta_rev_at_epoch": 25469,
        "meta_bstar": 6.8721214e-05,
        "meta_mean_motion_dot": 4.75e-06,
        "meta_mean_motion_ddot": 0,
        "tle_line1": "1 48079U 21026A   25350.25508535  .00000475  00000+0  68721-4 0  9990",
        "tle_line2": "2 48079  97.9852 344.2445 0003594  94.0705 266.0918 14.80679301254699"
      },
      "geometry": {
        "type": "Point",
        "coordinates": [
          160.87018845742128,
          -26.528137204318806
        ]
      }
    },
    {
      "type": "Feature",
      "properties": {
        "norad_id": 48268,
        "name": "PLEIADES NEO 3",
        "group": "resource",
        "lat": -69.99770020951205,
        "lon": 85.69127244793583,
        "alt_km": 632.2294607133736,
        "timestamp": "2025-12-16T21:38:56.827552+00:00",
        "meta_object_name": "PLEIADES NEO 3",
        "meta_object_id": "2021-034A",
        "meta_epoch": "2025-12-16T12:14:49.336800",
        "meta_mean_motion": 14.81671053,
        "meta_eccentricity": 0.000131,
        "meta_inclination": 97.8948,
        "meta_ra_of_asc_node": 62.8972,
        "meta_arg_of_pericenter": 96.3461,
        "meta_mean_anomaly": 263.7901,
        "meta_ephemeris_type": 0,
        "meta_classification_type": "U",
        "meta_norad_cat_id": 48268,
        "meta_element_set_no": 999,
        "meta_rev_at_epoch": 25060,
        "meta_bstar": 0.00011659,
        "meta_mean_motion_dot": 8.66e-06,
        "meta_mean_motion_ddot": 0,
        "tle_line1": "1 48268U 21034A   25350.51029325  .00000866  00000+0  11659-3 0  9994",
        "tle_line2": "2 48268  97.8948  62.8972 0001310  96.3461 263.7901 14.81671053250600"
      },
      "geometry": {
        "type": "Point",
        "coordinates": [
          85.69127244793583,
          -69.99770020951205
        ]
      }
    },
    {
      "type": "Feature",
      "properties": {
        "norad_id": 49070,
        "name": "PLEIADES NEO 4",
        "group": "resource",
        "lat": 69.8712922909356,
        "lon": -94.47473128084647,
        "alt_km": 616.4506153406082,
        "timestamp": "2025-12-16T21:38:56.827563+00:00",
        "meta_object_name": "PLEIADES NEO 4",
        "meta_object_id": "2021-073E",
        "meta_epoch": "2025-12-16T08:11:41.417376",
        "meta_mean_motion": 14.81670492,
        "meta_eccentricity": 0.00012796,
        "meta_inclination": 97.8946,
        "meta_ra_of_asc_node": 62.7265,
        "meta_arg_of_pericenter": 89.6662,
        "meta_mean_anomaly": 270.4697,
        "meta_ephemeris_type": 0,
        "meta_classification_type": "U",
        "meta_norad_cat_id": 49070,
        "meta_element_set_no": 999,
        "meta_rev_at_epoch": 23429,
        "meta_bstar": -4.3215141e-05,
        "meta_mean_motion_dot": -3.92e-06,
        "meta_mean_motion_ddot": 0,
        "tle_line1": "1 49070U 21073E   25350.34145159 -.00000392  00000+0 -43215-4 0  9994",
        "tle_line2": "2 49070  97.8946  62.7265 0001279  89.6662 270.4697 14.81670492234296"
      },
      "geometry": {
        "type": "Point",
        "coordinates": [
          -94.47473128084647,
          69.8712922909356
        ]
      }
    },
    {
      "type": "Feature",
      "properties": {
        "norad_id": 49260,
        "name": "LANDSAT 9",
        "group": "resource",
        "lat": 61.191432306915004,
        "lon": -105.82891567758341,
        "alt_km": 695.8917431156588,
        "timestamp": "2025-12-16T21:38:56.827573+00:00",
        "meta_object_name": "LANDSAT 9",
        "meta_object_id": "2021-088A",
        "meta_epoch": "2025-12-16T06:16:42.225312",
        "meta_mean_motion": 14.57101655,
        "meta_eccentricity": 0.00011347,
        "meta_inclination": 98.2092,
        "meta_ra_of_asc_node": 58.3216,
        "meta_arg_of_pericenter": 89.6816,
        "meta_mean_anomaly": 270.4513,
        "meta_ephemeris_type": 0,
        "meta_classification_type": "U",
        "meta_norad_cat_id": 49260,
        "meta_element_set_no": 999,
        "meta_rev_at_epoch": 22436,
        "meta_bstar": 0.00010313817,
        "meta_mean_motion_dot": 4.19e-06,
        "meta_mean_motion_ddot": 0,
        "tle_line1": "1 49260U 21088A   25350.26159983  .00000419  00000+0  10314-3 0  9993",
        "tle_line2": "2 49260  98.2092  58.3216 0001134  89.6816 270.4513 14.57101655224369"
      },
      "geometry": {
        "type": "Point",
        "coordinates": [
          -105.82891567758341,
          61.191432306915004
        ]
      }
    }
  ]
}